BEIJING 1               
1 28890U 05043A   26088.22663013  .00000429  00000+0  92096-4 0  9990
2 28890  98.2761 221.0527 0014806 167.1250 193.0333 14.63478272 88958
HUANJING 1A (HJ-1A)     
1 33320U 08041A   26088.19228788  .00002260  00000+0  27810-3 0  9993
2 33320  97.6652  77.1533 0020338  44.4901 315.7942 14.83785296946544
HUANJING 1B (HJ-1B)     
1 33321U 08041B   26088.19384681  .00001595  00000+0  19944-3 0  9998
2 33321  97.6498  80.5625 0038052  85.9490 274.6073 14.83153059946553
YAOGAN-4                
1 33446U 08061A   26088.08434157  .00001405  00000+0  17917-3 0  9998
2 33446  97.9263  22.2164 0013785 337.5029  22.5578 14.83034078933796
DEIMOS-1                
1 35681U 09041A   26088.14817205  .00001037  00000+0  16071-3 0  9997
2 35681  97.7294 248.8896 0002752  88.2620 271.8905 14.75145669895080
UK-DMC 2                
1 35683U 09041C   26088.16172959  .00001091  00000+0  16611-3 0  9991
2 35683  97.8686 225.1493 0001415  99.7913 260.3457 14.75893756894762
DMC3-FM1                
1 40715U 15032A   26088.19336836  .00001260  00000+0  15141-3 0  9994
2 40715  97.6587 316.4561 0004779 332.8229  27.2736 14.85644771578030
DMC3-FM2                
1 40716U 15032B   26088.21565432  .00000701  00000+0  86920-4 0  9997
2 40716  97.6640 317.9965 0005488 337.6195  22.4781 14.85646567578030
DMC3-FM3                
1 40717U 15032C   26088.17138896  .00000221  00000+0  31496-4 0  9998
2 40717  97.6693 319.6549 0004765 338.8665  21.2353 14.85643702578038
